SL-14 R/B               
1 16792U 86046B   25347.52286481  .00000780  00000+0  87197-4 0  9996
2 16792  82.4811 161.5746 0023859 149.7143 210.5458 14.85485689113612
SL-14 R/B               
1 16882U 86055B   25347.65451132  .00000672  00000+0  74858-4 0  9997
2 16882  82.5201 207.5134 0017493 256.1210 158.3419 14.85532119106599
AJISAI (EGS)            
1 16908U 86061A   25347.63367080 -.00000091  00000+0  49284-4 0  9990
2 16908  50.0113 357.9684 0011298  68.1503  33.6948 12.44514291457284
COSMOS 1812             
1 17295U 87003A   25347.30204276  .00136476  00000+0  88143-3 0  9990
2 17295  82.4867 291.4081 0007218  87.0596 273.1495 15.75658020130744
SL-14 R/B               
1 17567U 87024B   25347.52017342  .00000792  00000+0  87560-4 0  9999
2 17567  82.5274 173.7213 0018144 181.5761 178.5402 14.86024985 75339
COSMOS 1833             
1 17589U 87027A   25347.63806875  .00000176  00000+0  11966-3 0  9997
2 17589  70.9139 146.8889 0022571 330.4521  29.5322 14.13021886998159
SL-16 R/B               
1 17590U 87027B   25347.64947917  .00000076  00000+0  61682-4 0  9993
2 17590  71.0030  97.8011 0007363 258.3467 101.6830 14.17152258  3159
SL-14 R/B               
1 17912U 87038B   25347.53823439  .00000627  00000+0  70002-4 0  9991
2 17912  82.5017  17.9489 0020861  89.5679 270.7927 14.85262100 66447
COSMOS 1844             
1 17973U 87041A   25347.69344774 -.00000008  00000+0  20689-4 0  9999
2 17973  70.8972 215.5602 0030058 155.6106 204.6446 14.14526123991423
SL-14 R/B               
1 18153U 87055B   25347.66468088  .00000716  00000+0  79932-4 0  9997
2 18153  82.5001  70.1169 0019363 300.0677  59.8618 14.85522641 57169
COSMOS 1867             
1 18187U 87060A   25347.65080093 -.00000006  00000+0  35218-4 0  9997
2 18187  65.0090 187.6515 0013633 271.1945  88.7578 14.31486222  7626
SL-14 R/B               
1 18749U 88001B   25347.65433794  .00000727  00000+0  81310-4 0  9990
2 18749  82.5133 276.2869 0018564 158.1489 202.0524 14.85425226 29255
