CCSDS_OMM_VERS = 2.0
CREATION_DATE  = 
ORIGINATOR     = 

OBJECT_NAME    = SL-14 R/B
OBJECT_ID      = 1986-046B
CENTER_NAME    = EARTH
REF_FRAME      = TEME
TIME_SYSTEM    = UTC
MEAN_ELEMENT_THEORY = SGP/SGP4

EPOCH          = 2025-12-13T12:32:55.519584
MEAN_MOTION    = 14.85485689
ECCENTRICITY   = .0023859
INCLINATION    = 82.4811
RA_OF_ASC_NODE = 161.5746
ARG_OF_PERICENTER = 149.7143
MEAN_ANOMALY   = 210.5458

EPHEMERIS_TYPE = 0
CLASSIFICATION_TYPE = U
NORAD_CAT_ID   = 16792
ELEMENT_SET_NO = 999
REV_AT_EPOCH   = 11361
BSTAR          = .87196676E-4
MEAN_MOTION_DOT = .78E-5
MEAN_MOTION_DDOT = 0

CCSDS_OMM_VERS = 2.0
CREATION_DATE  = 
ORIGINATOR     = 

OBJECT_NAME    = SL-14 R/B
OBJECT_ID      = 1986-055B
CENTER_NAME    = EARTH
REF_FRAME      = TEME
TIME_SYSTEM    = UTC
MEAN_ELEMENT_THEORY = SGP/SGP4

EPOCH          = 2025-12-13T15:42:29.778048
MEAN_MOTION    = 14.85532119
ECCENTRICITY   = .00174932
INCLINATION    = 82.5201
RA_OF_ASC_NODE = 207.5134
ARG_OF_PERICENTER = 256.1210
MEAN_ANOMALY   = 158.3419

EPHEMERIS_TYPE = 0
CLASSIFICATION_TYPE = U
NORAD_CAT_ID   = 16882
ELEMENT_SET_NO = 999
REV_AT_EPOCH   = 10659
BSTAR          = .74857766E-4
MEAN_MOTION_DOT = .672E-5
MEAN_MOTION_DDOT = 0

CCSDS_OMM_VERS = 2.0
CREATION_DATE  = 
ORIGINATOR     = 

OBJECT_NAME    = AJISAI (EGS)
OBJECT_ID      = 1986-061A
CENTER_NAME    = EARTH
REF_FRAME      = TEME
TIME_SYSTEM    = UTC
MEAN_ELEMENT_THEORY = SGP/SGP4

EPOCH          = 2025-12-13T15:12:29.157120
MEAN_MOTION    = 12.44514291
ECCENTRICITY   = .00112986
INCLINATION    = 50.0113
RA_OF_ASC_NODE = 357.9684
ARG_OF_PERICENTER = 68.1503
MEAN_ANOMALY   = 33.6948

EPHEMERIS_TYPE = 0
CLASSIFICATION_TYPE = U
NORAD_CAT_ID   = 16908
ELEMENT_SET_NO = 999
REV_AT_EPOCH   = 45728
BSTAR          = .49283897E-4
MEAN_MOTION_DOT = -.91E-6
MEAN_MOTION_DDOT = 0

CCSDS_OMM_VERS = 2.0
CREATION_DATE  = 
ORIGINATOR     = 

OBJECT_NAME    = COSMOS 1812
OBJECT_ID      = 1987-003A
CENTER_NAME    = EARTH
REF_FRAME      = TEME
TIME_SYSTEM    = UTC
MEAN_ELEMENT_THEORY = SGP/SGP4

EPOCH          = 2025-12-13T07:14:56.494464
MEAN_MOTION    = 15.75658020
ECCENTRICITY   = .00072186
INCLINATION    = 82.4867
RA_OF_ASC_NODE = 291.4081
ARG_OF_PERICENTER = 87.0596
MEAN_ANOMALY   = 273.1495

EPHEMERIS_TYPE = 0
CLASSIFICATION_TYPE = U
NORAD_CAT_ID   = 17295
ELEMENT_SET_NO = 999
REV_AT_EPOCH   = 13074
BSTAR          = .88143039E-3
MEAN_MOTION_DOT = .136476E-2
MEAN_MOTION_DDOT = 0

CCSDS_OMM_VERS = 2.0
CREATION_DATE  = 
ORIGINATOR     = 

OBJECT_NAME    = SL-14 R/B
OBJECT_ID      = 1987-024B
CENTER_NAME    = EARTH
REF_FRAME      = TEME
TIME_SYSTEM    = UTC
MEAN_ELEMENT_THEORY = SGP/SGP4

EPOCH          = 2025-12-13T12:29:02.983488
MEAN_MOTION    = 14.86024985
ECCENTRICITY   = .00181446
INCLINATION    = 82.5274
RA_OF_ASC_NODE = 173.7213
ARG_OF_PERICENTER = 181.5761
MEAN_ANOMALY   = 178.5402

EPHEMERIS_TYPE = 0
CLASSIFICATION_TYPE = U
NORAD_CAT_ID   = 17567
ELEMENT_SET_NO = 999
REV_AT_EPOCH   = 7533
BSTAR          = .87559922E-4
MEAN_MOTION_DOT = .792E-5
MEAN_MOTION_DDOT = 0

CCSDS_OMM_VERS = 2.0
CREATION_DATE  = 
ORIGINATOR     = 

OBJECT_NAME    = COSMOS 1833
OBJECT_ID      = 1987-027A
CENTER_NAME    = EARTH
REF_FRAME      = TEME
TIME_SYSTEM    = UTC
MEAN_ELEMENT_THEORY = SGP/SGP4

EPOCH          = 2025-12-13T15:18:49.140000
MEAN_MOTION    = 14.13021886
ECCENTRICITY   = .00225716
INCLINATION    = 70.9139
RA_OF_ASC_NODE = 146.8889
ARG_OF_PERICENTER = 330.4521
MEAN_ANOMALY   = 29.5322

EPHEMERIS_TYPE = 0
CLASSIFICATION_TYPE = U
NORAD_CAT_ID   = 17589
ELEMENT_SET_NO = 999
REV_AT_EPOCH   = 99815
BSTAR          = .1196551E-3
MEAN_MOTION_DOT = .176E-5
MEAN_MOTION_DDOT = 0

CCSDS_OMM_VERS = 2.0
CREATION_DATE  = 
ORIGINATOR     = 

OBJECT_NAME    = SL-16 R/B
OBJECT_ID      = 1987-027B
CENTER_NAME    = EARTH
REF_FRAME      = TEME
TIME_SYSTEM    = UTC
MEAN_ELEMENT_THEORY = SGP/SGP4

EPOCH          = 2025-12-13T15:35:15.000288
MEAN_MOTION    = 14.17152258
ECCENTRICITY   = .00073633
INCLINATION    = 71.0030
RA_OF_ASC_NODE = 97.8011
ARG_OF_PERICENTER = 258.3467
MEAN_ANOMALY   = 101.6830

EPHEMERIS_TYPE = 0
CLASSIFICATION_TYPE = U
NORAD_CAT_ID   = 17590
ELEMENT_SET_NO = 999
REV_AT_EPOCH   = 315
BSTAR          = .61681648E-4
MEAN_MOTION_DOT = .76E-6
MEAN_MOTION_DDOT = 0

CCSDS_OMM_VERS = 2.0
CREATION_DATE  = 
ORIGINATOR     = 

OBJECT_NAME    = SL-14 R/B
OBJECT_ID      = 1987-038B
CENTER_NAME    = EARTH
REF_FRAME      = TEME
TIME_SYSTEM    = UTC
MEAN_ELEMENT_THEORY = SGP/SGP4

EPOCH          = 2025-12-13T12:55:03.451296
MEAN_MOTION    = 14.85262100
ECCENTRICITY   = .0020861
INCLINATION    = 82.5017
RA_OF_ASC_NODE = 17.9489
ARG_OF_PERICENTER = 89.5679
MEAN_ANOMALY   = 270.7927

EPHEMERIS_TYPE = 0
CLASSIFICATION_TYPE = U
NORAD_CAT_ID   = 17912
ELEMENT_SET_NO = 999
REV_AT_EPOCH   = 6644
BSTAR          = .70002141E-4
MEAN_MOTION_DOT = .627E-5
MEAN_MOTION_DDOT = 0

CCSDS_OMM_VERS = 2.0
CREATION_DATE  = 
ORIGINATOR     = 

OBJECT_NAME    = COSMOS 1844
OBJECT_ID      = 1987-041A
CENTER_NAME    = EARTH
REF_FRAME      = TEME
TIME_SYSTEM    = UTC
MEAN_ELEMENT_THEORY = SGP/SGP4

EPOCH          = 2025-12-13T16:38:33.884736
MEAN_MOTION    = 14.14526123
ECCENTRICITY   = .00300587
INCLINATION    = 70.8972
RA_OF_ASC_NODE = 215.5602
ARG_OF_PERICENTER = 155.6106
MEAN_ANOMALY   = 204.6446

EPHEMERIS_TYPE = 0
CLASSIFICATION_TYPE = U
NORAD_CAT_ID   = 17973
ELEMENT_SET_NO = 999
REV_AT_EPOCH   = 99142
BSTAR          = .20689469E-4
MEAN_MOTION_DOT = -.8E-7
MEAN_MOTION_DDOT = 0

CCSDS_OMM_VERS = 2.0
CREATION_DATE  = 
ORIGINATOR     = 

OBJECT_NAME    = SL-14 R/B
OBJECT_ID      = 1987-055B
CENTER_NAME    = EARTH
REF_FRAME      = TEME
TIME_SYSTEM    = UTC
MEAN_ELEMENT_THEORY = SGP/SGP4

EPOCH          = 2025-12-13T15:57:08.428032
MEAN_MOTION    = 14.85522641
ECCENTRICITY   = .00193631
INCLINATION    = 82.5001
RA_OF_ASC_NODE = 70.1169
ARG_OF_PERICENTER = 300.0677
MEAN_ANOMALY   = 59.8618

EPHEMERIS_TYPE = 0
CLASSIFICATION_TYPE = U
NORAD_CAT_ID   = 18153
ELEMENT_SET_NO = 999
REV_AT_EPOCH   = 5716
BSTAR          = .7993203E-4
MEAN_MOTION_DOT = .716E-5
MEAN_MOTION_DDOT = 0

CCSDS_OMM_VERS = 2.0
CREATION_DATE  = 
ORIGINATOR     = 

OBJECT_NAME    = COSMOS 1867
OBJECT_ID      = 1987-060A
CENTER_NAME    = EARTH
REF_FRAME      = TEME
TIME_SYSTEM    = UTC
MEAN_ELEMENT_THEORY = SGP/SGP4

EPOCH          = 2025-12-13T15:37:09.200352
MEAN_MOTION    = 14.31486222
ECCENTRICITY   = .00136331
INCLINATION    = 65.0090
RA_OF_ASC_NODE = 187.6515
ARG_OF_PERICENTER = 271.1945
MEAN_ANOMALY   = 88.7578

EPHEMERIS_TYPE = 0
CLASSIFICATION_TYPE = U
NORAD_CAT_ID   = 18187
ELEMENT_SET_NO = 999
REV_AT_EPOCH   = 762
BSTAR          = .35217641E-4
MEAN_MOTION_DOT = -.6E-7
MEAN_MOTION_DDOT = 0

CCSDS_OMM_VERS = 2.0
CREATION_DATE  = 
ORIGINATOR     = 

OBJECT_NAME    = SL-14 R/B
OBJECT_ID      = 1988-001B
CENTER_NAME    = EARTH
REF_FRAME      = TEME
TIME_SYSTEM    = UTC
MEAN_ELEMENT_THEORY = SGP/SGP4

EPOCH          = 2025-12-13T15:42:14.798016
MEAN_MOTION    = 14.85425226
ECCENTRICITY   = .0018564
INCLINATION    = 82.5133
RA_OF_ASC_NODE = 276.2869
ARG_OF_PERICENTER = 158.1489
MEAN_ANOMALY   = 202.0524

EPHEMERIS_TYPE = 0
CLASSIFICATION_TYPE = U
NORAD_CAT_ID   = 18749
ELEMENT_SET_NO = 999
REV_AT_EPOCH   = 2925
BSTAR          = .81309656E-4
MEAN_MOTION_DOT = .727E-5
MEAN_MOTION_DDOT = 0

